[
    {
        "Altitude(m)": 622205.8955124585,
        "Argument of Periapsis(deg)": 0.0,
        "Eccentricity": 0.0,
        "Inclination(deg)": 60.0,
        "Latitude(deg)": -52.16251275491108,
        "Longitude(deg)": -42.299500320197204,
        "Mean Anomaly(deg)": -114.54549999999999,
        "RAAN(deg)": 190.0,
        "Satellite Name": "Test1 851",
        "Satellite Number": 851,
        "Semi-Major Axis(m)": 6980739.136638005,
        "Time(s)": 0
    },
    {
        "Altitude(m)": 622344.8015559599,
        "Argument of Periapsis(deg)": 0.00010418945913296404,
        "Eccentricity": 0.0,
        "Inclination(deg)": 60.0,
        "Latitude(deg)": -52.52009121698252,
        "Longitude(deg)": -41.5182852290886,
        "Mean Anomaly(deg)": -113.92539385453814,
        "RAAN(deg)": 189.99957995086027,
        "Satellite Name": "Test1 851",
        "Satellite Number": 851,
        "Semi-Major Axis(m)": 6980739.136638005,
        "Time(s)": 10
    }
]